ORBCOMM FM37            
1 33064U 08031E   24206.18841281  .00003804  00000+0  56432-3 0  9992
2 33064  48.4401  99.8742 0005519  50.8741  83.1372 14.76880186865511
ORBCOMM FM40            
1 33065U 08031F   24206.18417359  .00004761  00000+0  67595-3 0  9993
2 33065  48.4423  88.5166 0006726  61.8467  79.3636 14.78316876865566
VESSELSAT 1             
1 37840U 11058C   24206.52507493  .00000488  00000+0  12202-3 0  9995
2 37840  19.9617 276.3409 0013644 182.0238 178.0112 14.11178823659961
ORBCOMM FM109           
1 40086U 14040A   24206.12955918  .00002512  00000+0  59214-3 0  9994
2 40086  47.0026 124.2925 0002318 259.4877 100.5747 14.56856385533208
ORBCOMM FM107           
1 40087U 14040B   24206.16333145  .00002149  00000+0  51194-3 0  9996
2 40087  47.0043 125.1059 0001453 233.9154 126.1597 14.56857344533281
ORBCOMM FM106           
1 40088U 14040C   24206.57665396  .00002635  00000+0  49322-3 0  9998
2 40088  47.0616 330.7223 0017842 341.8912  18.1341 14.67346295535329
ORBCOMM FM111           
1 40089U 14040D   24206.52669679  .00004431  00000+0  56939-3 0  9990
2 40089  47.0018 223.0416 0032155  65.2783 295.1454 14.82297341541548
ORBCOMM FM104           
1 40090U 14040E   24206.28071511  .00001678  00000+0  42105-3 0  9997
2 40090  47.0046 154.3149 0016324 148.2190 211.9683 14.55324964532838
