<?xml version="1.0" encoding="UTF-8"?>
<ndm xmlns:xsi="http://www.w3.org/2001/XMLSchema-instance" xsi:noNamespaceSchemaLocation="https://sanaregistry.org/r/ndmxml_unqualified/ndmxml-2.0.0-master-2.0.xsd">
<omm id="CCSDS_OMM_VERS" version="2.0">
<header><CREATION_DATE/><ORIGINATOR/></header><body><segment><metadata><OBJECT_NAME>ORBCOMM FM37</OBJECT_NAME><OBJECT_ID>2008-031E</OBJECT_ID><CENTER_NAME>EARTH</CENTER_NAME><REF_FRAME>TEME</REF_FRAME><TIME_SYSTEM>UTC</TIME_SYSTEM><MEAN_ELEMENT_THEORY>SGP4</MEAN_ELEMENT_THEORY></metadata><data><meanElements><EPOCH>2024-07-24T04:31:18.866784</EPOCH><MEAN_MOTION>14.76880186</MEAN_MOTION><ECCENTRICITY>.0005519</ECCENTRICITY><INCLINATION>48.4401</INCLINATION><RA_OF_ASC_NODE>99.8742</RA_OF_ASC_NODE><ARG_OF_PERICENTER>50.8741</ARG_OF_PERICENTER><MEAN_ANOMALY>83.1372</MEAN_ANOMALY></meanElements><tleParameters><EPHEMERIS_TYPE>0</EPHEMERIS_TYPE><CLASSIFICATION_TYPE>U</CLASSIFICATION_TYPE><NORAD_CAT_ID>33064</NORAD_CAT_ID><ELEMENT_SET_NO>999</ELEMENT_SET_NO><REV_AT_EPOCH>86551</REV_AT_EPOCH><BSTAR>.56432E-3</BSTAR><MEAN_MOTION_DOT>.3804E-4</MEAN_MOTION_DOT><MEAN_MOTION_DDOT>0</MEAN_MOTION_DDOT></tleParameters></data></segment></body></omm>
<omm id="CCSDS_OMM_VERS" version="2.0">
<header><CREATION_DATE/><ORIGINATOR/></header><body><segment><metadata><OBJECT_NAME>ORBCOMM FM40</OBJECT_NAME><OBJECT_ID>2008-031F</OBJECT_ID><CENTER_NAME>EARTH</CENTER_NAME><REF_FRAME>TEME</REF_FRAME><TIME_SYSTEM>UTC</TIME_SYSTEM><MEAN_ELEMENT_THEORY>SGP4</MEAN_ELEMENT_THEORY></metadata><data><meanElements><EPOCH>2024-07-24T04:25:12.598176</EPOCH><MEAN_MOTION>14.78316876</MEAN_MOTION><ECCENTRICITY>.0006726</ECCENTRICITY><INCLINATION>48.4423</INCLINATION><RA_OF_ASC_NODE>88.5166</RA_OF_ASC_NODE><ARG_OF_PERICENTER>61.8467</ARG_OF_PERICENTER><MEAN_ANOMALY>79.3636</MEAN_ANOMALY></meanElements><tleParameters><EPHEMERIS_TYPE>0</EPHEMERIS_TYPE><CLASSIFICATION_TYPE>U</CLASSIFICATION_TYPE><NORAD_CAT_ID>33065</NORAD_CAT_ID><ELEMENT_SET_NO>999</ELEMENT_SET_NO><REV_AT_EPOCH>86556</REV_AT_EPOCH><BSTAR>.67595E-3</BSTAR><MEAN_MOTION_DOT>.4761E-4</MEAN_MOTION_DOT><MEAN_MOTION_DDOT>0</MEAN_MOTION_DDOT></tleParameters></data></segment></body></omm>
<omm id="CCSDS_OMM_VERS" version="2.0">
<header><CREATION_DATE/><ORIGINATOR/></header><body><segment><metadata><OBJECT_NAME>VESSELSAT 1</OBJECT_NAME><OBJECT_ID>2011-058C</OBJECT_ID><CENTER_NAME>EARTH</CENTER_NAME><REF_FRAME>TEME</REF_FRAME><TIME_SYSTEM>UTC</TIME_SYSTEM><MEAN_ELEMENT_THEORY>SGP4</MEAN_ELEMENT_THEORY></metadata><data><meanElements><EPOCH>2024-07-24T12:36:06.473952</EPOCH><MEAN_MOTION>14.11178823</MEAN_MOTION><ECCENTRICITY>.0013644</ECCENTRICITY><INCLINATION>19.9617</INCLINATION><RA_OF_ASC_NODE>276.3409</RA_OF_ASC_NODE><ARG_OF_PERICENTER>182.0238</ARG_OF_PERICENTER><MEAN_ANOMALY>178.0112</MEAN_ANOMALY></meanElements><tleParameters><EPHEMERIS_TYPE>0</EPHEMERIS_TYPE><CLASSIFICATION_TYPE>U</CLASSIFICATION_TYPE><NORAD_CAT_ID>37840</NORAD_CAT_ID><ELEMENT_SET_NO>999</ELEMENT_SET_NO><REV_AT_EPOCH>65996</REV_AT_EPOCH><BSTAR>.12202E-3</BSTAR><MEAN_MOTION_DOT>.488E-5</MEAN_MOTION_DOT><MEAN_MOTION_DDOT>0</MEAN_MOTION_DDOT></tleParameters></data></segment></body></omm>
<omm id="CCSDS_OMM_VERS" version="2.0">
<header><CREATION_DATE/><ORIGINATOR/></header><body><segment><metadata><OBJECT_NAME>ORBCOMM FM109</OBJECT_NAME><OBJECT_ID>2014-040A</OBJECT_ID><CENTER_NAME>EARTH</CENTER_NAME><REF_FRAME>TEME</REF_FRAME><TIME_SYSTEM>UTC</TIME_SYSTEM><MEAN_ELEMENT_THEORY>SGP4</MEAN_ELEMENT_THEORY></metadata><data><meanElements><EPOCH>2024-07-24T03:06:33.913152</EPOCH><MEAN_MOTION>14.56856385</MEAN_MOTION><ECCENTRICITY>.0002318</ECCENTRICITY><INCLINATION>47.0026</INCLINATION><RA_OF_ASC_NODE>124.2925</RA_OF_ASC_NODE><ARG_OF_PERICENTER>259.4877</ARG_OF_PERICENTER><MEAN_ANOMALY>100.5747</MEAN_ANOMALY></meanElements><tleParameters><EPHEMERIS_TYPE>0</EPHEMERIS_TYPE><CLASSIFICATION_TYPE>U</CLASSIFICATION_TYPE><NORAD_CAT_ID>40086</NORAD_CAT_ID><ELEMENT_SET_NO>999</ELEMENT_SET_NO><REV_AT_EPOCH>53320</REV_AT_EPOCH><BSTAR>.59214E-3</BSTAR><MEAN_MOTION_DOT>.2512E-4</MEAN_MOTION_DOT><MEAN_MOTION_DDOT>0</MEAN_MOTION_DDOT></tleParameters></data></segment></body></omm>
<omm id="CCSDS_OMM_VERS" version="2.0">
<header><CREATION_DATE/><ORIGINATOR/></header><body><segment><metadata><OBJECT_NAME>ORBCOMM FM107</OBJECT_NAME><OBJECT_ID>2014-040B</OBJECT_ID><CENTER_NAME>EARTH</CENTER_NAME><REF_FRAME>TEME</REF_FRAME><TIME_SYSTEM>UTC</TIME_SYSTEM><MEAN_ELEMENT_THEORY>SGP4</MEAN_ELEMENT_THEORY></metadata><data><meanElements><EPOCH>2024-07-24T03:55:11.837280</EPOCH><MEAN_MOTION>14.56857344</MEAN_MOTION><ECCENTRICITY>.0001453</ECCENTRICITY><INCLINATION>47.0043</INCLINATION><RA_OF_ASC_NODE>125.1059</RA_OF_ASC_NODE><ARG_OF_PERICENTER>233.9154</ARG_OF_PERICENTER><MEAN_ANOMALY>126.1597</MEAN_ANOMALY></meanElements><tleParameters><EPHEMERIS_TYPE>0</EPHEMERIS_TYPE><CLASSIFICATION_TYPE>U</CLASSIFICATION_TYPE><NORAD_CAT_ID>40087</NORAD_CAT_ID><ELEMENT_SET_NO>999</ELEMENT_SET_NO><REV_AT_EPOCH>53328</REV_AT_EPOCH><BSTAR>.51194E-3</BSTAR><MEAN_MOTION_DOT>.2149E-4</MEAN_MOTION_DOT><MEAN_MOTION_DDOT>0</MEAN_MOTION_DDOT></tleParameters></data></segment></body></omm>
<omm id="CCSDS_OMM_VERS" version="2.0">
<header><CREATION_DATE/><ORIGINATOR/></header><body><segment><metadata><OBJECT_NAME>ORBCOMM FM106</OBJECT_NAME><OBJECT_ID>2014-040C</OBJECT_ID><CENTER_NAME>EARTH</CENTER_NAME><REF_FRAME>TEME</REF_FRAME><TIME_SYSTEM>UTC</TIME_SYSTEM><MEAN_ELEMENT_THEORY>SGP4</MEAN_ELEMENT_THEORY></metadata><data><meanElements><EPOCH>2024-07-24T13:50:22.902144</EPOCH><MEAN_MOTION>14.67346295</MEAN_MOTION><ECCENTRICITY>.0017842</ECCENTRICITY><INCLINATION>47.0616</INCLINATION><RA_OF_ASC_NODE>330.7223</RA_OF_ASC_NODE><ARG_OF_PERICENTER>341.8912</ARG_OF_PERICENTER><MEAN_ANOMALY>18.1341</MEAN_ANOMALY></meanElements><tleParameters><EPHEMERIS_TYPE>0</EPHEMERIS_TYPE><CLASSIFICATION_TYPE>U</CLASSIFICATION_TYPE><NORAD_CAT_ID>40088</NORAD_CAT_ID><ELEMENT_SET_NO>999</ELEMENT_SET_NO><REV_AT_EPOCH>53532</REV_AT_EPOCH><BSTAR>.49322E-3</BSTAR><MEAN_MOTION_DOT>.2635E-4</MEAN_MOTION_DOT><MEAN_MOTION_DDOT>0</MEAN_MOTION_DDOT></tleParameters></data></segment></body></omm>
<omm id="CCSDS_OMM_VERS" version="2.0">
<header><CREATION_DATE/><ORIGINATOR/></header><body><segment><metadata><OBJECT_NAME>ORBCOMM FM111</OBJECT_NAME><OBJECT_ID>2014-040D</OBJECT_ID><CENTER_NAME>EARTH</CENTER_NAME><REF_FRAME>TEME</REF_FRAME><TIME_SYSTEM>UTC</TIME_SYSTEM><MEAN_ELEMENT_THEORY>SGP4</MEAN_ELEMENT_THEORY></metadata><data><meanElements><EPOCH>2024-07-24T12:38:26.602656</EPOCH><MEAN_MOTION>14.82297341</MEAN_MOTION><ECCENTRICITY>.0032155</ECCENTRICITY><INCLINATION>47.0018</INCLINATION><RA_OF_ASC_NODE>223.0416</RA_OF_ASC_NODE><ARG_OF_PERICENTER>65.2783</ARG_OF_PERICENTER><MEAN_ANOMALY>295.1454</MEAN_ANOMALY></meanElements><tleParameters><EPHEMERIS_TYPE>0</EPHEMERIS_TYPE><CLASSIFICATION_TYPE>U</CLASSIFICATION_TYPE><NORAD_CAT_ID>40089</NORAD_CAT_ID><ELEMENT_SET_NO>999</ELEMENT_SET_NO><REV_AT_EPOCH>54154</REV_AT_EPOCH><BSTAR>.56939E-3</BSTAR><MEAN_MOTION_DOT>.4431E-4</MEAN_MOTION_DOT><MEAN_MOTION_DDOT>0</MEAN_MOTION_DDOT></tleParameters></data></segment></body></omm>
<omm id="CCSDS_OMM_VERS" version="2.0">
<header><CREATION_DATE/><ORIGINATOR/></header><body><segment><metadata><OBJECT_NAME>ORBCOMM FM104</OBJECT_NAME><OBJECT_ID>2014-040E</OBJECT_ID><CENTER_NAME>EARTH</CENTER_NAME><REF_FRAME>TEME</REF_FRAME><TIME_SYSTEM>UTC</TIME_SYSTEM><MEAN_ELEMENT_THEORY>SGP4</MEAN_ELEMENT_THEORY></metadata><data><meanElements><EPOCH>2024-07-24T06:44:13.785504</EPOCH><MEAN_MOTION>14.55324964</MEAN_MOTION><ECCENTRICITY>.0016324</ECCENTRICITY><INCLINATION>47.0046</INCLINATION><RA_OF_ASC_NODE>154.3149</RA_OF_ASC_NODE><ARG_OF_PERICENTER>148.2190</ARG_OF_PERICENTER><MEAN_ANOMALY>211.9683</MEAN_ANOMALY></meanElements><tleParameters><EPHEMERIS_TYPE>0</EPHEMERIS_TYPE><CLASSIFICATION_TYPE>U</CLASSIFICATION_TYPE><NORAD_CAT_ID>40090</NORAD_CAT_ID><ELEMENT_SET_NO>999</ELEMENT_SET_NO><REV_AT_EPOCH>53283</REV_AT_EPOCH><BSTAR>.42105E-3</BSTAR><MEAN_MOTION_DOT>.1678E-4</MEAN_MOTION_DOT><MEAN_MOTION_DDOT>0</MEAN_MOTION_DDOT></tleParameters></data></segment></body></omm>

</ndm>
